COMMENT,ORIGINATOR,NORAD_CAT_ID,OBJECT_NAME,OBJECT_TYPE,CLASSIFICATION_TYPE,INTLDES,EPOCH,EPOCH_MICROSECONDS,MEAN_MOTION,ECCENTRICITY,INCLINATION,RA_OF_ASC_NODE,ARG_OF_PERICENTER,MEAN_ANOMALY,EPHEMERIS_TYPE,ELEMENT_SET_NO,REV_AT_EPOCH,BSTAR,MEAN_MOTION_DOT,MEAN_MOTION_DDOT,FILE,TLE_LINE0,TLE_LINE1,TLE_LINE2,OBJECT_ID,OBJECT_NUMBER,SEMIMAJOR_AXIS,PERIOD,APOGEE,PERIGEE,DECAYED
GENERATED VIA SPACETRACK.ORG API,18 SPCS,57309,STARLINK-30163,PAYLOAD,U,23096V,2024-03-30 09:15:09,882720,15.02529693,0.0003176,43.0013,116.9774,280.4142,79.6342,0,999,3998,0.00062533,0.00008252,0,4253415,0 STARLINK-30163,1 57309U 23096V   24090.38553105  .00008252  00000-0  62533-3 0  9998,2 57309  43.0013 116.9774 0003176 280.4142  79.6342 15.02529693 39982,2023-096V,57309,6937.236,95.838,561.304,556.898,1
GENERATED VIA SPACETRACK.ORG API,18 SPCS,57309,STARLINK-30163,PAYLOAD,U,23096V,2024-03-30 09:15:09,882720,15.02529693,0.0003176,43.0013,116.9774,280.4142,79.6342,0,999,4001,0.00062533,0.00008252,0,4253807,0 STARLINK-30163,1 57309U 23096V   24090.38553105  .00008252  00000-0  62533-3 0  9998,2 57309  43.0013 116.9774 0003176 280.4142  79.6342 15.02529693 40018,2023-096V,57309,6937.236,95.838,561.304,556.898,1
GENERATED VIA SPACETRACK.ORG API,18 SPCS,57309,STARLINK-30163,PAYLOAD,U,23096V,2024-03-30 18:49:31,831680,15.02547518,0.000072,43.0007,114.8104,260.4134,99.6627,0,999,4007,0.0012316,0.00016477,0,4254317,0 STARLINK-30163,1 57309U 23096V   24090.78439620  .00016477  00000-0  12316-2 0  9998,2 57309  43.0007 114.8104 0000720 260.4134  99.6627 15.02547518 40076,2023-096V,57309,6937.181,95.837,559.546,558.547,1
GENERATED VIA SPACETRACK.ORG API,18 SPCS,57309,STARLINK-30163,PAYLOAD,U,23096V,2024-03-31 10:46:48,634464,15.025514,0.0000683,43.0019,111.1975,246.2023,113.8747,0,999,4014,0.0010611,0.00014165,0,4255258,0 STARLINK-30163,1 57309U 23096V   24091.44917401  .00014165  00000-0  10611-2 0  9998,2 57309  43.0019 111.1975 0000683 246.2023 113.8747 15.02551400 40147,2023-096V,57309,6937.169,95.837,559.508,558.560,1
GENERATED VIA SPACETRACK.ORG API,18 SPCS,57309,STARLINK-30163,PAYLOAD,U,23096V,2024-03-31 10:46:48,634464,15.025514,0.0000683,43.0019,111.1975,246.2023,113.8747,0,999,4017,0.0010611,0.00014165,0,4255611,0 STARLINK-30163,1 57309U 23096V   24091.44917401  .00014165  00000-0  10611-2 0  9998,2 57309  43.0019 111.1975 0000683 246.2023 113.8747 15.02551400 40170,2023-096V,57309,6937.169,95.837,559.508,558.560,1
GENERATED VIA SPACETRACK.ORG API,18 SPCS,57309,STARLINK-30163,PAYLOAD,U,23096V,2024-04-01 01:08:21,404544,15.02550843,0.0000726,43.0026,107.9459,244.2884,115.7883,0,999,4023,0.00054449,0.00007162,0,4256389,0 STARLINK-30163,1 57309U 23096V   24092.04746996  .00007162  00000-0  54449-3 0  9991,2 57309  43.0026 107.9459 0000726 244.2884 115.7883 15.02550843 40238,2023-096V,57309,6937.171,95.837,559.539,558.532,1
GENERATED VIA SPACETRACK.ORG API,18 SPCS,57309,STARLINK-30163,PAYLOAD,U,23096V,2024-04-01 10:42:43,836480,15.02530467,0.0000671,43.0019,105.7795,261.9404,98.1362,0,999,4029,0.0000037248,-0.00000153,0,4257236,0 STARLINK-30163,1 57309U 23096V   24092.44634070 -.00000153  00000-0  37248-5 0  9998,2 57309  43.0019 105.7795 0000671 261.9404  98.1362 15.02530467 40294,2023-096V,57309,6937.234,95.838,559.564,558.633,1
GENERATED VIA SPACETRACK.ORG API,18 SPCS,57309,STARLINK-30163,PAYLOAD,U,23096V,2024-04-01 10:42:43,836480,15.02530467,0.0000671,43.0019,105.7795,261.9404,98.1362,0,999,4032,0.0000037248,-0.00000153,0,4257565,0 STARLINK-30163,1 57309U 23096V   24092.44634070 -.00000153  00000-0  37248-5 0  9998,2 57309  43.0019 105.7795 0000671 261.9404  98.1362 15.02530467 40328,2023-096V,57309,6937.234,95.838,559.564,558.633,1
GENERATED VIA SPACETRACK.ORG API,18 SPCS,57309,STARLINK-30163,PAYLOAD,U,23096V,2024-04-02 07:27:12,126528,15.02530968,0.0000689,43.003,101.0833,257.796,102.2805,0,999,4045,0.00020796,0.00002606,0,4259431,0 STARLINK-30163,1 57309U 23096V   24093.31055702  .00002606  00000-0  20796-3 0  9996,2 57309  43.0030 101.0833 0000689 257.7960 102.2805 15.02530968 40451,2023-096V,57309,6937.232,95.838,559.575,558.619,1
GENERATED VIA SPACETRACK.ORG API,18 SPCS,57309,STARLINK-30163,PAYLOAD,U,23096V,2024-04-02 17:01:34,267296,15.02536601,0.0000697,43.0032,98.9161,256.773,103.3034,0,999,4048,0.00041578,0.00005417,0,4259668,0 STARLINK-30163,1 57309U 23096V   24093.70942439  .00005417  00000-0  41578-3 0  9995,2 57309  43.0032  98.9161 0000697 256.7730 103.3034 15.02536601 40483,2023-096V,57309,6937.215,95.838,559.563,558.596,1
GENERATED VIA SPACETRACK.ORG API,18 SPCS,57309,STARLINK-30163,PAYLOAD,U,23096V,2024-04-02 17:01:34,267296,15.02536601,0.0000697,43.0032,98.9161,256.773,103.3034,0,999,4051,0.00041578,0.00005417,0,4260070,0 STARLINK-30163,1 57309U 23096V   24093.70942439  .00005417  00000-0  41578-3 0  9995,2 57309  43.0032  98.9161 0000697 256.7730 103.3034 15.02536601 40517,2023-096V,57309,6937.215,95.838,559.563,558.596,1
GENERATED VIA SPACETRACK.ORG API,18 SPCS,57309,STARLINK-30163,PAYLOAD,U,23096V,2024-04-03 08:58:51,165984,15.02537817,0.0000718,43.0031,95.3042,252.0112,108.0652,0,999,4061,0.00028526,0.00003652,0,4261282,0 STARLINK-30163,1 57309U 23096V   24094.37420331  .00003652  00000-0  28526-3 0  9998,2 57309  43.0031  95.3042 0000718 252.0112 108.0652 15.02537817 40611,2023-096V,57309,6937.211,95.838,559.574,558.578,1
GENERATED VIA SPACETRACK.ORG API,18 SPCS,57309,STARLINK-30163,PAYLOAD,U,23096V,2024-04-03 16:57:29,450304,15.02542305,0.0000739,43.0032,93.4976,250.2692,109.8071,0,999,4066,0.00033853,0.00004373,0,4261881,0 STARLINK-30163,1 57309U 23096V   24094.70659086  .00004373  00000-0  33853-3 0  9996,2 57309  43.0032  93.4976 0000739 250.2692 109.8071 15.02542305 40660,2023-096V,57309,6937.197,95.838,559.575,558.549,1
GENERATED VIA SPACETRACK.ORG API,18 SPCS,57309,STARLINK-30163,PAYLOAD,U,23096V,2024-04-04 04:07:35,255712,15.02538583,0.0000801,43.0035,90.9689,250.3672,109.7084,0,999,4070,0.00016434,0.00002017,0,4262117,0 STARLINK-30163,1 57309U 23096V   24095.17193583  .00002017  00000-0  16434-3 0  9992,2 57309  43.0035  90.9689 0000801 250.3672 109.7084 15.02538583 40706,2023-096V,57309,6937.209,95.838,559.629,558.518,1
GENERATED VIA SPACETRACK.ORG API,18 SPCS,57309,STARLINK-30163,PAYLOAD,U,23096V,2024-04-04 04:07:35,255712,15.02538583,0.0000801,43.0035,90.9689,250.3672,109.7084,0,999,4073,0.00016434,0.00002017,0,4263133,0 STARLINK-30163,1 57309U 23096V   24095.17193583  .00002017  00000-0  16434-3 0  9992,2 57309  43.0035  90.9689 0000801 250.3672 109.7084 15.02538583 40739,2023-096V,57309,6937.209,95.838,559.629,558.518,1
GENERATED VIA SPACETRACK.ORG API,18 SPCS,57309,STARLINK-30163,PAYLOAD,U,23096V,2024-04-04 16:53:24,514080,15.02543706,0.0000818,43.0034,88.079,246.9995,113.0761,0,999,4081,0.00024161,0.00003062,0,4263706,0 STARLINK-30163,1 57309U 23096V   24095.70375595  .00003062  00000-0  24161-3 0  9993,2 57309  43.0034  88.0790 0000818 246.9995 113.0761 15.02543706 40818,2023-096V,57309,6937.193,95.837,559.625,558.490,1
GENERATED VIA SPACETRACK.ORG API,18 SPCS,57309,STARLINK-30163,PAYLOAD,U,23096V,2024-04-05 05:39:14,87808,15.02537478,0.0000784,43.0039,85.1893,245.4351,114.641,0,999,4086,-0.000017515,-0.0000044,0,4263909,0 STARLINK-30163,1 57309U 23096V   24096.23557972 -.00000440  00000-0 -17515-4 0  9998,2 57309  43.0039  85.1893 0000784 245.4351 114.6410 15.02537478 40869,2023-096V,57309,6937.212,95.838,559.621,558.533,1
GENERATED VIA SPACETRACK.ORG API,18 SPCS,57309,STARLINK-30163,PAYLOAD,U,23096V,2024-04-05 08:50:41,911296,15.02530993,0.0000829,43.0059,84.4671,243.4196,116.6562,0,999,4091,0.00033382,0.00004308,0,4264927,0 STARLINK-30163,1 57309U 23096V   24096.36854064  .00004308  00000-0  33382-3 0  9998,2 57309  43.0059  84.4671 0000829 243.4196 116.6562 15.02530993 40913,2023-096V,57309,6937.232,95.838,559.672,558.522,1
GENERATED VIA SPACETRACK.ORG API,18 SPCS,57309,STARLINK-30163,PAYLOAD,U,23096V,2024-04-06 07:10:53,19264,15.02537965,0.0000732,43.0036,79.4126,260.6621,99.4138,0,999,4102,0.00012418,0.00001474,0,4266365,0 STARLINK-30163,1 57309U 23096V   24097.29922476  .00001474  00000-0  12418-3 0  9992,2 57309  43.0036  79.4126 0000732 260.6621  99.4138 15.02537965 41020,2023-096V,57309,6937.210,95.838,559.583,558.568,1
GENERATED VIA SPACETRACK.ORG API,18 SPCS,57309,STARLINK-30163,PAYLOAD,U,23096V,2024-04-06 07:10:53,19264,15.02537965,0.0000732,43.0036,79.4126,260.6621,99.4138,0,999,4105,0.00012418,0.00001474,0,4266712,0 STARLINK-30163,1 57309U 23096V   24097.29922476  .00001474  00000-0  12418-3 0  9992,2 57309  43.0036  79.4126 0000732 260.6621  99.4138 15.02537965 41053,2023-096V,57309,6937.210,95.838,559.583,558.568,1
GENERATED VIA SPACETRACK.ORG API,18 SPCS,57309,STARLINK-30163,PAYLOAD,U,23096V,2024-04-06 23:08:09,557664,15.02541601,0.0000805,43.0042,75.799,260.3078,99.7674,0,999,4115,0.00017276,0.00002131,0,4267273,0 STARLINK-30163,1 57309U 23096V   24097.96399951  .00002131  00000-0  17276-3 0  9990,2 57309  43.0042  75.7990 0000805 260.3078  99.7674 15.02541601 41153,2023-096V,57309,6937.199,95.838,559.623,558.506,1
GENERATED VIA SPACETRACK.ORG API,18 SPCS,57309,STARLINK-30163,PAYLOAD,U,23096V,2024-04-07 07:06:48,667968,15.02528223,0.0000743,43.0036,73.9925,261.9046,98.1712,0,999,4120,-0.000075461,-0.00001222,0,4267861,0 STARLINK-30163,1 57309U 23096V   24098.29639662 -.00001222  00000-0 -75461-4 0  9996,2 57309  43.0036  73.9925 0000743 261.9046  98.1712 15.02528223 41204,2023-096V,57309,6937.240,95.838,559.621,558.590,1
GENERATED VIA SPACETRACK.ORG API,18 SPCS,57309,STARLINK-30163,PAYLOAD,U,23096V,2024-04-07 21:28:21,578016,15.02535616,0.0000782,43.0036,70.7408,260.8249,99.2505,0,999,4129,0.00017525,0.00002165,0,4268432,0 STARLINK-30163,1 57309U 23096V   24098.89469419  .00002165  00000-0  17525-3 0  9994,2 57309  43.0036  70.7408 0000782 260.8249  99.2505 15.02535616 41296,2023-096V,57309,6937.218,95.838,559.625,558.540,1
